{
  "type": "FeatureCollection",
  "features": [
    {
      "type": "Feature",
      "properties": {
        "norad_id": 35959,
        "name": "COSMOS 2251 DEB",
        "group": "cosmos-2251-debris",
        "lat": -3.63096877732355,
        "lon": 115.27115274804784,
        "alt_km": 796.5424397221996,
        "timestamp": "2025-12-22T11:33:20.836934+00:00",
        "meta_object_name": "COSMOS 2251 DEB",
        "meta_object_id": "1993-036AUZ",
        "meta_epoch": "2025-12-22T02:19:54.921216",
        "meta_mean_motion": 14.34142228,
        "meta_eccentricity": 0.0021969,
        "meta_inclination": 74.0331,
        "meta_ra_of_asc_node": 294.9334,
        "meta_arg_of_pericenter": 12.848,
        "meta_mean_anomaly": 347.3227,
        "meta_ephemeris_type": 0,
        "meta_classification_type": "U",
        "meta_norad_cat_id": 35959,
        "meta_element_set_no": 999,
        "meta_rev_at_epoch": 85062,
        "meta_bstar": 0.00011529,
        "meta_mean_motion_dot": 2.97e-06,
        "meta_mean_motion_ddot": 0,
        "tle_line1": "1 35959U 93036AUZ 25356.09716344  .00000297  00000+0  11529-3 0  9995",
        "tle_line2": "2 35959  74.0331 294.9334 0021969  12.8480 347.3227 14.34142228850625"
      },
      "geometry": {
        "type": "Point",
        "coordinates": [
          115.27115274804784,
          -3.63096877732355
        ]
      }
    },
    {
      "type": "Feature",
      "properties": {
        "norad_id": 35961,
        "name": "COSMOS 2251 DEB",
        "group": "cosmos-2251-debris",
        "lat": -10.366674540625883,
        "lon": 10.070933823779818,
        "alt_km": 834.0442815242795,
        "timestamp": "2025-12-22T11:33:20.836944+00:00",
        "meta_object_name": "COSMOS 2251 DEB",
        "meta_object_id": "1993-036AVB",
        "meta_epoch": "2025-12-18T21:15:12.372768",
        "meta_mean_motion": 14.05418101,
        "meta_eccentricity": 0.01915239,
        "meta_inclination": 73.9239,
        "meta_ra_of_asc_node": 193.3704,
        "meta_arg_of_pericenter": 125.5075,
        "meta_mean_anomaly": 236.4097,
        "meta_ephemeris_type": 0,
        "meta_classification_type": "U",
        "meta_norad_cat_id": 35961,
        "meta_element_set_no": 999,
        "meta_rev_at_epoch": 62768,
        "meta_bstar": 0.0011788636,
        "meta_mean_motion_dot": 2.232e-05,
        "meta_mean_motion_ddot": 0,
        "tle_line1": "1 35961U 93036AVB 25352.88555987  .00002232  00000+0  11789-2 0  9993",
        "tle_line2": "2 35961  73.9239 193.3704 0191523 125.5075 236.4097 14.05418101627687"
      },
      "geometry": {
        "type": "Point",
        "coordinates": [
          10.070933823779818,
          -10.366674540625883
        ]
      }
    },
    {
      "type": "Feature",
      "properties": {
        "norad_id": 35979,
        "name": "COSMOS 2251 DEB",
        "group": "cosmos-2251-debris",
        "lat": -14.861095833947767,
        "lon": -145.0380754490293,
        "alt_km": 608.9134780328122,
        "timestamp": "2025-12-22T11:33:20.836954+00:00",
        "meta_object_name": "COSMOS 2251 DEB",
        "meta_object_id": "1993-036AVV",
        "meta_epoch": "2025-12-19T21:49:20.667936",
        "meta_mean_motion": 14.74720129,
        "meta_eccentricity": 0.0059181,
        "meta_inclination": 74.0091,
        "meta_ra_of_asc_node": 224.3569,
        "meta_arg_of_pericenter": 354.8475,
        "meta_mean_anomaly": 19.529,
        "meta_ephemeris_type": 0,
        "meta_classification_type": "U",
        "meta_norad_cat_id": 35979,
        "meta_element_set_no": 999,
        "meta_rev_at_epoch": 88739,
        "meta_bstar": 0.00048194,
        "meta_mean_motion_dot": 3.28e-05,
        "meta_mean_motion_ddot": 0,
        "tle_line1": "1 35979U 93036AVV 25353.90926699  .00003280  00000+0  48194-3 0  9993",
        "tle_line2": "2 35979  74.0091 224.3569 0059181 354.8475  19.5290 14.74720129887395"
      },
      "geometry": {
        "type": "Point",
        "coordinates": [
          -145.0380754490293,
          -14.861095833947767
        ]
      }
    },
    {
      "type": "Feature",
      "properties": {
        "norad_id": 35980,
        "name": "COSMOS 2251 DEB",
        "group": "cosmos-2251-debris",
        "lat": 43.77822166472948,
        "lon": 120.025232009841,
        "alt_km": 728.42542674793,
        "timestamp": "2025-12-22T11:33:20.836963+00:00",
        "meta_object_name": "COSMOS 2251 DEB",
        "meta_object_id": "1993-036AVW",
        "meta_epoch": "2025-12-21T00:47:41.997408",
        "meta_mean_motion": 14.59403711,
        "meta_eccentricity": 0.00538655,
        "meta_inclination": 73.9127,
        "meta_ra_of_asc_node": 106.7527,
        "meta_arg_of_pericenter": 240.1949,
        "meta_mean_anomaly": 119.3854,
        "meta_ephemeris_type": 0,
        "meta_classification_type": "U",
        "meta_norad_cat_id": 35980,
        "meta_element_set_no": 999,
        "meta_rev_at_epoch": 61607,
        "meta_bstar": 0.00094415254,
        "meta_mean_motion_dot": 4.534e-05,
        "meta_mean_motion_ddot": 0,
        "tle_line1": "1 35980U 93036AVW 25355.03312497  .00004534  00000+0  94415-3 0  9996",
        "tle_line2": "2 35980  73.9127 106.7527 0053865 240.1949 119.3854 14.59403711616076"
      },
      "geometry": {
        "type": "Point",
        "coordinates": [
          120.025232009841,
          43.77822166472948
        ]
      }
    },
    {
      "type": "Feature",
      "properties": {
        "norad_id": 35982,
        "name": "COSMOS 2251 DEB",
        "group": "cosmos-2251-debris",
        "lat": 74.04765144077221,
        "lon": 57.76225978511185,
        "alt_km": 652.4345252055746,
        "timestamp": "2025-12-22T11:33:20.836973+00:00",
        "meta_object_name": "COSMOS 2251 DEB",
        "meta_object_id": "1993-036AVY",
        "meta_epoch": "2025-12-21T08:53:22.101216",
        "meta_mean_motion": 14.62796302,
        "meta_eccentricity": 0.00644452,
        "meta_inclination": 74.0583,
        "meta_ra_of_asc_node": 330.4066,
        "meta_arg_of_pericenter": 34.1969,
        "meta_mean_anomaly": 326.3322,
        "meta_ephemeris_type": 0,
        "meta_classification_type": "U",
        "meta_norad_cat_id": 35982,
        "meta_element_set_no": 999,
        "meta_rev_at_epoch": 86292,
        "meta_bstar": 0.00048464355,
        "meta_mean_motion_dot": 2.517e-05,
        "meta_mean_motion_ddot": 0,
        "tle_line1": "1 35982U 93036AVY 25355.37039469  .00002517  00000+0  48464-3 0  9992",
        "tle_line2": "2 35982  74.0583 330.4066 0064445  34.1969 326.3322 14.62796302862921"
      },
      "geometry": {
        "type": "Point",
        "coordinates": [
          57.76225978511185,
          74.04765144077221
        ]
      }
    },
    {
      "type": "Feature",
      "properties": {
        "norad_id": 35987,
        "name": "COSMOS 2251 DEB",
        "group": "cosmos-2251-debris",
        "lat": 60.36858289099228,
        "lon": 98.21525518301462,
        "alt_km": 718.0436042061865,
        "timestamp": "2025-12-22T11:33:20.836983+00:00",
        "meta_object_name": "COSMOS 2251 DEB",
        "meta_object_id": "1993-036AWD",
        "meta_epoch": "2025-12-21T03:25:05.273760",
        "meta_mean_motion": 14.43173107,
        "meta_eccentricity": 0.00462099,
        "meta_inclination": 74.0005,
        "meta_ra_of_asc_node": 311.0003,
        "meta_arg_of_pericenter": 74.0129,
        "meta_mean_anomaly": 286.6111,
        "meta_ephemeris_type": 0,
        "meta_classification_type": "U",
        "meta_norad_cat_id": 35987,
        "meta_element_set_no": 999,
        "meta_rev_at_epoch": 61186,
        "meta_bstar": 0.00065128022,
        "meta_mean_motion_dot": 2.191e-05,
        "meta_mean_motion_ddot": 0,
        "tle_line1": "1 35987U 93036AWD 25355.14242215  .00002191  00000+0  65128-3 0  9991",
        "tle_line2": "2 35987  74.0005 311.0003 0046209  74.0129 286.6111 14.43173107611860"
      },
      "geometry": {
        "type": "Point",
        "coordinates": [
          98.21525518301462,
          60.36858289099228
        ]
      }
    },
    {
      "type": "Feature",
      "properties": {
        "norad_id": 35989,
        "name": "COSMOS 2251 DEB",
        "group": "cosmos-2251-debris",
        "lat": -49.542147438980344,
        "lon": -113.69262025629244,
        "alt_km": 761.9289402229069,
        "timestamp": "2025-12-22T11:33:20.836993+00:00",
        "meta_object_name": "COSMOS 2251 DEB",
        "meta_object_id": "1993-036AWF",
        "meta_epoch": "2025-12-21T00:42:48.161376",
        "meta_mean_motion": 14.37112482,
        "meta_eccentricity": 0.00223748,
        "meta_inclination": 74.0376,
        "meta_ra_of_asc_node": 268.5863,
        "meta_arg_of_pericenter": 348.5916,
        "meta_mean_anomaly": 11.4727,
        "meta_ephemeris_type": 0,
        "meta_classification_type": "U",
        "meta_norad_cat_id": 35989,
        "meta_element_set_no": 999,
        "meta_rev_at_epoch": 87298,
        "meta_bstar": 0.00015604931,
        "meta_mean_motion_dot": 4.39e-06,
        "meta_mean_motion_ddot": 0,
        "tle_line1": "1 35989U 93036AWF 25355.02972409  .00000439  00000+0  15605-3 0  9993",
        "tle_line2": "2 35989  74.0376 268.5863 0022374 348.5916  11.4727 14.37112482872984"
      },
      "geometry": {
        "type": "Point",
        "coordinates": [
          -113.69262025629244,
          -49.542147438980344
        ]
      }
    }
  ]
}